STARLINK-5260           
1 55275U 23010G   25199.47738964 -.00001190  00000+0 -91970-4 0  9996
2 55275  69.9984 255.1017 0003264 270.0446  90.0339 14.98322886138197
STARLINK-5261           
1 55276U 23010H   25199.47722414 -.00000315  00000+0 -18568-4 0  9990
2 55276  69.9983 255.0998 0003724 264.1439  95.9296 14.98338394138187
STARLINK-5299           
1 55277U 23010J   25199.48579333  .00000376  00000+0  39315-4 0  9990
2 55277  69.9993 275.0006 0003523 268.5671  91.5084 14.98330508137707
STARLINK-5289           
1 55278U 23010K   25199.60261961 -.00000531  00000+0 -36715-4 0  9996
2 55278  69.9993 274.6036 0003375 264.1477  95.9297 14.98328092137717
STARLINK-5331           
1 55280U 23010M   25199.50666294  .00000131  00000+0  18788-4 0  9990
2 55280  69.9994 275.0625 0003389 268.5103  91.5667 14.98331340137699
STARLINK-5298           
1 55281U 23010N   25199.61096619 -.00000300  00000+0 -17343-4 0  9997
2 55281  69.9995 274.6341 0003745 268.4696  91.6034 14.98328801137713
STARLINK-5330           
1 55282U 23010P   25199.58335648  .00032435  00000+0  27144-2 0  9992
2 55282  70.0006 274.5489 0003774 272.9298  72.4333 14.98316766  5611
STARLINK-5317           
1 55283U 23010Q   25199.60679158  .00000025  00000+0  98537-5 0  9990
2 55283  69.9993 274.6190 0003425 268.4844  91.5922 14.98329290137713
STARLINK-5337           
1 55284U 23010R   25199.91668981 -.00022266  00000+0 -18638-2 0  9991
2 55284  70.0003 273.7066 0003477 270.2760  73.4609 14.98337591137451
STARLINK-5332           
1 55285U 23010S   25199.49383611 -.00000228  00000+0 -11325-4 0  9991
2 55285  69.9985 234.8655 0003382 272.1588  87.9184 14.98331310138377
STARLINK-5338           
1 55286U 23010T   25199.60239678 -.00000522  00000+0 -35918-4 0  9999
2 55286  69.9985 254.7335 0003843 268.9210  91.1509 14.98327148138205
STARLINK-5341           
1 55287U 23010U   25199.47699589 -.00000466  00000+0 -31243-4 0  9990
2 55287  69.9983 235.1360 0003519 269.8298  90.2457 14.98325561138671
STARLINK-5311           
1 55288U 23010V   25199.59003721 -.00000972  00000+0 -73625-4 0  9993
2 55288  69.9983 254.6893 0003279 278.6458  81.4329 14.98336972138205
STARLINK-5320           
1 55289U 23010W   25199.47306614  .00001395  00000+0  12474-3 0  9990
2 55289  69.9987 255.0843 0003370 263.1806  96.8970 14.98320985138184
STARLINK-5266           
1 55290U 23010X   25199.46470102 -.00000106  00000+0 -11145-5 0  9992
2 55290  69.9986 255.0543 0003588 268.4522  91.6225 14.98328325138188
STARLINK-5327           
1 55291U 23010Y   25199.54815954 -.00000903  00000+0 -67843-4 0  9990
2 55291  69.9981 254.9437 0003516 266.5548  93.5208 14.98335931138196
STARLINK-5325           
1 55292U 23010Z   25199.51893631  .00000048  00000+0  11808-4 0  9994
2 55292  69.9984 254.8425 0003645 268.2191  91.8550 14.98330869138198
STARLINK-5287           
1 55293U 23010AA  25199.85691104 -.00000039  00000+0  45410-5 0  9991
2 55293  69.9982 254.0162 0003806 269.2667  90.8056 14.98330546137938
STARLINK-5286           
1 55294U 23010AB  25199.46074879  .00000123  00000+0  18138-4 0  9992
2 55294  69.9992 274.9068 0003323 270.2695  89.8084 14.98329177137693
STARLINK-5293           
1 55295U 23010AC  25199.50249038  .00000513  00000+0  50784-4 0  9995
2 55295  69.9995 275.0583 0003486 269.6413  90.4346 14.98330983137709
STARLINK-5285           
1 55296U 23010AD  25199.50641502 -.00000101  00000+0 -65728-6 0  9999
2 55296  69.9985 254.7991 0003408 268.6610  91.4159 14.98330092139074
STARLINK-5284           
1 55297U 23010AE  25199.51476006  .00000212  00000+0  25589-4 0  9996
2 55297  69.9982 254.8278 0003540 267.9948  92.0805 14.98333060137884
STARLINK-5270           
1 55299U 23010AG  25199.50223863  .00000086  00000+0  14993-4 0  9994
2 55299  69.9985 254.7858 0003600 268.5591  91.5156 14.98331889139073
STARLINK-5308           
1 55300U 23010AH  25199.56482620 -.00000171  00000+0 -65464-5 0  9998
2 55300  69.9982 254.5997 0003463 268.1444  91.9319 14.98330413138206
STARLINK-5321           
1 55302U 23010AK  25199.51058942  .00000097  00000+0  15925-4 0  9992
2 55302  69.9987 254.8116 0003621 265.4997  94.5749 14.98330277137885
STARLINK-5322           
1 55303U 23010AL  25199.51498687 -.00000170  00000+0 -64079-5 0  9996
2 55303  69.9992 274.6952 0003656 268.6220  91.4520 14.98328856137403
STARLINK-5318           
1 55304U 23010AM  25199.49389278 -.00000745  00000+0 -54628-4 0  9995
2 55304  69.9983 254.7532 0003419 268.1639  91.9129 14.98326492137889
STARLINK-5316           
1 55305U 23010AN  25199.55650849 -.00000241  00000+0 -12382-4 0  9990
2 55305  69.9985 254.9767 0003790 268.2566  91.8159 14.98326050138205
STARLINK-5295           
1 55306U 23010AP  25199.46030225  .00000039  00000+0  11097-4 0  9996
2 55306  69.9981 235.1661 0003336 268.1622  91.9155 14.98330763138689
STARLINK-5288           
1 55307U 23010AQ  25199.46447416  .00000202  00000+0  24711-4 0  9990
2 55307  69.9982 235.1804 0003829 266.5574  93.5147 14.98331246138681
STARLINK-5315           
1 55309U 23010AS  25199.54790733 -.00000163  00000+0 -58149-5 0  9995
2 55309  69.9985 234.6677 0003772 267.8673  92.2054 14.98328340138706
STARLINK-5309           
1 55310U 23010AT  25199.51871299 -.00000479  00000+0 -32303-4 0  9994
2 55310  69.9981 234.9655 0003087 269.8291  90.2514 14.98337443138691
STARLINK-5312           
1 55311U 23010AU  25199.52288693 -.00000137  00000+0 -36857-5 0  9996
2 55311  69.9979 234.9815 0003504 269.0458  91.0299 14.98333272139560
STARLINK-5296           
1 55312U 23010AV  25199.49366552  .00000363  00000+0  38232-4 0  9991
2 55312  69.9986 234.7641 0003955 268.7510  91.3196 14.98322378139563
STARLINK-5313           
1 55313U 23010AW  25199.84416858 -.00000084  00000+0  72222-6 0  9996
2 55313  69.9984 234.0937 0003207 266.1787  93.9005 14.98328757138429
STARLINK-5305           
1 55314U 23010AX  25199.51454035  .00000162  00000+0  21397-4 0  9991
2 55314  69.9981 234.9489 0003167 268.1144  91.9653 14.98330884138388
STARLINK-4623           
1 55315U 23010AY  25199.59404631  .00000336  00000+0  35919-4 0  9995
2 55315  69.9984 254.7043 0003475 268.4997  91.5764 14.98329782138192
STARLINK-5257           
1 55316U 23010AZ  25199.48532185 -.00000199  00000+0 -88637-5 0  9995
2 55316  69.9985 234.8638 0003802 267.2278  92.8446 14.98328444139563
STARLINK-5265           
1 55317U 23010BA  25199.50619071  .00000010  00000+0  86520-5 0  9998
2 55317  69.9986 234.9474 0003950 267.9335  92.1371 14.98331006139567
STARLINK-5180           
1 55318U 23010BB  25199.50201664  .00000132  00000+0  18883-4 0  9995
2 55318  69.9985 234.9053 0003814 267.7499  92.3223 14.98329747138373
STARLINK-5196           
1 55319U 23010BC  25199.49784333 -.00000304  00000+0 -17695-4 0  9996
2 55319  69.9986 234.8913 0003715 268.3329  91.7405 14.98329927139565
STARLINK-5492           
1 55331U 23013A   25199.54769859  .00002605  00000+0  20775-3 0  9991
2 55331  43.0048 133.0036 0001332 261.0214  99.0478 15.02556735136915
STARLINK-5491           
1 55332U 23013B   25199.46263223  .00000590  00000+0  58722-4 0  9992
2 55332  43.0044 120.2029 0001065 258.5755 101.4968 15.02537513136629
STARLINK-5493           
1 55333U 23013C   25199.54217480  .00000359  00000+0  41635-4 0  9994
2 55333  43.0020 132.9622 0000892 267.7742  92.2998 15.02536826136488
STARLINK-5652           
1 55334U 23013D   25199.54438205  .00000245  00000+0  33229-4 0  9999
2 55334  43.0039 132.8794 0001020 278.2735  81.7992 15.02534447136485
STARLINK-5660           
1 55335U 23013E   25199.53885075 -.00000108  00000+0  70737-5 0  9995
2 55335  43.0033 132.9353 0001129 272.7871  87.2842 15.02534043136917
STARLINK-5655           
1 55336U 23013F   25199.14023048  .00000286  00000+0  36219-4 0  9999
2 55336  43.0040 122.0025 0000170 242.5935 117.4890 15.02535904137000
STARLINK-5667           
1 55337U 23013G   25199.12024954  .00000568  00000+0  57122-4 0  9994
2 55337  43.0046 121.8996 0001094 264.1750  95.8967 15.02535539136571
STARLINK-5658           
1 55338U 23013H   25199.53662248  .00000371  00000+0  42541-4 0  9995
2 55338  43.0020 132.9199 0000885 273.3760  86.6981 15.02539097136917
STARLINK-5671           
1 55339U 23013J   25199.53107993  .00000076  00000+0  20727-4 0  9991
2 55339  43.0030 132.8754 0000813 269.8367  90.2382 15.02534453136916
STARLINK-5675           
1 55340U 23013K   25199.18647783  .00000289  00000+0  36457-4 0  9993
2 55340  43.0037 134.5959 0000986 273.9502  86.1228 15.02534060136433
STARLINK-5670           
1 55341U 23013L   25199.86569286 -.00000322  00000+0 -87916-5 0  9997
2 55341  43.0024 131.0878 0000799 288.7420  71.3336 15.02538780136964
STARLINK-5657           
1 55342U 23013M   25199.52774899  .00000349  00000+0  40905-4 0  9992
2 55342  43.0040 132.8504 0001235 265.9351  94.1350 15.02532978136483
STARLINK-5661           
1 55343U 23013N   25199.18980718  .00000521  00000+0  53632-4 0  9997
2 55343  43.0032 134.6139 0000821 281.2216  78.8534 15.02535593136434
STARLINK-5653           
1 55345U 23013Q   25199.19006521 -.00000055  00000+0  11009-4 0  9996
2 55345  43.0031 121.5920 0001000 264.6430  95.4299 15.02536065137014
STARLINK-5631           
1 55346U 23013R   25199.51998194  .00000071  00000+0  20308-4 0  9998
2 55346  43.0032 132.7899 0001041 267.8313  92.2410 15.02533215136489
STARLINK-5663           
1 55347U 23013S   25199.50776789 -.00000198  00000+0  41297-6 0  9995
2 55347  43.0042 132.6976 0001057 267.3631  92.7090 15.02534215136481
STARLINK-5609           
1 55348U 23013T   25199.51664923  .00000444  00000+0  47960-4 0  9997
2 55348  43.0039 132.7645 0001011 276.2177  83.8550 15.02533635136483
STARLINK-5666           
1 55349U 23013U   25199.51331744  .00000404  00000+0  44960-4 0  9993
2 55349  43.0037 132.7410 0001084 259.5202 100.5518 15.02535785136484
